{"fetched_at":"2026-07-14T06:34:25.665Z","source":"https://celestrak.org/NORAD/elements/gp.php?GROUP=qianfan&FORMAT=JSON","constellation":"qianfan","records":[{"OBJECT_NAME":"QIANFAN-177","OBJECT_ID":"2026-124N","EPOCH":"2026-07-13T11:41:04.335936","CLASSIFICATION_TYPE":"U","MEAN_MOTION":13.98521626,"ECCENTRICITY":0.0007792,"INCLINATION":88.9992,"RA_OF_ASC_NODE":359.0538,"ARG_OF_PERICENTER":56.8105,"MEAN_ANOMALY":303.3819,"EPHEMERIS_TYPE":0,"NORAD_CAT_ID":69394,"ELEMENT_SET_NO":999,"REV_AT_EPOCH":554,"BSTAR":-1.5612,"MEAN_MOTION_DOT":-0.02074353,"MEAN_MOTION_DDOT":0},{"OBJECT_NAME":"QIANFAN-178","OBJECT_ID":"2026-124P","EPOCH":"2026-07-13T16:48:00.171936","CLASSIFICATION_TYPE":"U","MEAN_MOTION":13.99126038,"ECCENTRICITY":0.0006593,"INCLINATION":88.9983,"RA_OF_ASC_NODE":359.028,"ARG_OF_PERICENTER":74.4634,"MEAN_ANOMALY":285.7272,"EPHEMERIS_TYPE":0,"NORAD_CAT_ID":69395,"ELEMENT_SET_NO":999,"REV_AT_EPOCH":557,"BSTAR":-1.5477,"MEAN_MOTION_DOT":-0.02078033,"MEAN_MOTION_DDOT":0},{"OBJECT_NAME":"QIANFAN-179","OBJECT_ID":"2026-124Q","EPOCH":"2026-07-13T18:06:09.379008","CLASSIFICATION_TYPE":"U","MEAN_MOTION":14.00146622,"ECCENTRICITY":0.0003301,"INCLINATION":88.9991,"RA_OF_ASC_NODE":359.0198,"ARG_OF_PERICENTER":121.9956,"MEAN_ANOMALY":238.1544,"EPHEMERIS_TYPE":0,"NORAD_CAT_ID":69396,"ELEMENT_SET_NO":999,"REV_AT_EPOCH":558,"BSTAR":-1.4746,"MEAN_MOTION_DOT":-0.02019846,"MEAN_MOTION_DDOT":0},{"OBJECT_NAME":"QIANFAN-180","OBJECT_ID":"2026-124R","EPOCH":"2026-07-13T14:42:02.911680","CLASSIFICATION_TYPE":"U","MEAN_MOTION":13.99201169,"ECCENTRICITY":0.0006767,"INCLINATION":88.9991,"RA_OF_ASC_NODE":359.0347,"ARG_OF_PERICENTER":73.0621,"MEAN_ANOMALY":287.1299,"EPHEMERIS_TYPE":0,"NORAD_CAT_ID":69397,"ELEMENT_SET_NO":999,"REV_AT_EPOCH":556,"BSTAR":-1.5141,"MEAN_MOTION_DOT":-0.02038494,"MEAN_MOTION_DDOT":0},{"OBJECT_NAME":"QIANFAN-181","OBJECT_ID":"2026-124S","EPOCH":"2026-07-13T13:25:23.511360","CLASSIFICATION_TYPE":"U","MEAN_MOTION":13.90016116,"ECCENTRICITY":0.0001178,"INCLINATION":88.999,"RA_OF_ASC_NODE":359.0826,"ARG_OF_PERICENTER":98.1158,"MEAN_ANOMALY":262.0148,"EPHEMERIS_TYPE":0,"NORAD_CAT_ID":69398,"ELEMENT_SET_NO":999,"REV_AT_EPOCH":553,"BSTAR":-1.6505,"MEAN_MOTION_DOT":-0.01902195,"MEAN_MOTION_DDOT":0},{"OBJECT_NAME":"QIANFAN-182","OBJECT_ID":"2026-124T","EPOCH":"2026-07-13T17:24:24.453792","CLASSIFICATION_TYPE":"U","MEAN_MOTION":13.91938139,"ECCENTRICITY":0.0005013,"INCLINATION":88.9997,"RA_OF_ASC_NODE":359.0526,"ARG_OF_PERICENTER":114.0892,"MEAN_ANOMALY":246.0807,"EPHEMERIS_TYPE":0,"NORAD_CAT_ID":69399,"ELEMENT_SET_NO":999,"REV_AT_EPOCH":555,"BSTAR":-1.6897,"MEAN_MOTION_DOT":-0.02005944,"MEAN_MOTION_DDOT":0},{"OBJECT_NAME":"QIANFAN-183","OBJECT_ID":"2026-125A","EPOCH":"2026-07-13T14:42:19.497024","CLASSIFICATION_TYPE":"U","MEAN_MOTION":13.9740878,"ECCENTRICITY":0.002015,"INCLINATION":88.9938,"RA_OF_ASC_NODE":277.4755,"ARG_OF_PERICENTER":100.8325,"MEAN_ANOMALY":259.5122,"EPHEMERIS_TYPE":0,"NORAD_CAT_ID":69401,"ELEMENT_SET_NO":999,"REV_AT_EPOCH":543,"BSTAR":-1.4132,"MEAN_MOTION_DOT":-0.01838206,"MEAN_MOTION_DDOT":0},{"OBJECT_NAME":"QIANFAN-184","OBJECT_ID":"2026-125B","EPOCH":"2026-07-13T17:53:35.901888","CLASSIFICATION_TYPE":"U","MEAN_MOTION":13.95513978,"ECCENTRICITY":0.0024302,"INCLINATION":88.9937,"RA_OF_ASC_NODE":277.4579,"ARG_OF_PERICENTER":79.3341,"MEAN_ANOMALY":281.057,"EPHEMERIS_TYPE":0,"NORAD_CAT_ID":69402,"ELEMENT_SET_NO":999,"REV_AT_EPOCH":545,"BSTAR":-1.6367,"MEAN_MOTION_DOT":-0.02068012,"MEAN_MOTION_DDOT":0},{"OBJECT_NAME":"QIANFAN-185","OBJECT_ID":"2026-125C","EPOCH":"2026-07-13T19:43:08.289408","CLASSIFICATION_TYPE":"U","MEAN_MOTION":14.05243743,"ECCENTRICITY":0.001841,"INCLINATION":88.9949,"RA_OF_ASC_NODE":277.4501,"ARG_OF_PERICENTER":86.9584,"MEAN_ANOMALY":273.3704,"EPHEMERIS_TYPE":0,"NORAD_CAT_ID":69403,"ELEMENT_SET_NO":999,"REV_AT_EPOCH":546,"BSTAR":0.00010621,"MEAN_MOTION_DOT":0.00000186,"MEAN_MOTION_DDOT":0},{"OBJECT_NAME":"QIANFAN-186","OBJECT_ID":"2026-125D","EPOCH":"2026-07-13T17:34:33.103776","CLASSIFICATION_TYPE":"U","MEAN_MOTION":13.95117115,"ECCENTRICITY":0.0023594,"INCLINATION":88.9944,"RA_OF_ASC_NODE":277.4557,"ARG_OF_PERICENTER":82.5491,"MEAN_ANOMALY":277.8365,"EPHEMERIS_TYPE":0,"NORAD_CAT_ID":69404,"ELEMENT_SET_NO":999,"REV_AT_EPOCH":545,"BSTAR":-1.6241,"MEAN_MOTION_DOT":-0.02039667,"MEAN_MOTION_DDOT":0},{"OBJECT_NAME":"QIANFAN-187","OBJECT_ID":"2026-125E","EPOCH":"2026-07-13T18:47:00.272256","CLASSIFICATION_TYPE":"U","MEAN_MOTION":13.96608215,"ECCENTRICITY":0.002466,"INCLINATION":88.9942,"RA_OF_ASC_NODE":277.4442,"ARG_OF_PERICENTER":81.0418,"MEAN_ANOMALY":279.3548,"EPHEMERIS_TYPE":0,"NORAD_CAT_ID":69405,"ELEMENT_SET_NO":999,"REV_AT_EPOCH":546,"BSTAR":-1.576,"MEAN_MOTION_DOT":-0.02032461,"MEAN_MOTION_DDOT":0},{"OBJECT_NAME":"QIANFAN-188","OBJECT_ID":"2026-125F","EPOCH":"2026-07-13T18:09:25.013664","CLASSIFICATION_TYPE":"U","MEAN_MOTION":13.99210515,"ECCENTRICITY":0.0017812,"INCLINATION":88.9938,"RA_OF_ASC_NODE":277.4408,"ARG_OF_PERICENTER":87.429,"MEAN_ANOMALY":272.8927,"EPHEMERIS_TYPE":0,"NORAD_CAT_ID":69406,"ELEMENT_SET_NO":999,"REV_AT_EPOCH":546,"BSTAR":-1.6,"MEAN_MOTION_DOT":-0.02148502,"MEAN_MOTION_DDOT":0},{"OBJECT_NAME":"QIANFAN-189","OBJECT_ID":"2026-125G","EPOCH":"2026-07-13T18:28:54.308064","CLASSIFICATION_TYPE":"U","MEAN_MOTION":13.97589101,"ECCENTRICITY":0.0022754,"INCLINATION":88.9944,"RA_OF_ASC_NODE":277.4431,"ARG_OF_PERICENTER":81.6682,"MEAN_ANOMALY":278.7074,"EPHEMERIS_TYPE":0,"NORAD_CAT_ID":69407,"ELEMENT_SET_NO":999,"REV_AT_EPOCH":545,"BSTAR":-1.5774,"MEAN_MOTION_DOT":-0.02066346,"MEAN_MOTION_DDOT":0},{"OBJECT_NAME":"QIANFAN-190","OBJECT_ID":"2026-125H","EPOCH":"2026-07-13T16:38:47.199840","CLASSIFICATION_TYPE":"U","MEAN_MOTION":13.97044902,"ECCENTRICITY":0.0023889,"INCLINATION":88.9945,"RA_OF_ASC_NODE":277.4502,"ARG_OF_PERICENTER":81.2001,"MEAN_ANOMALY":279.188,"EPHEMERIS_TYPE":0,"NORAD_CAT_ID":69408,"ELEMENT_SET_NO":999,"REV_AT_EPOCH":545,"BSTAR":-1.6202,"MEAN_MOTION_DOT":-0.02100119,"MEAN_MOTION_DDOT":0},{"OBJECT_NAME":"QIANFAN-191","OBJECT_ID":"2026-125J","EPOCH":"2026-07-13T17:55:26.405760","CLASSIFICATION_TYPE":"U","MEAN_MOTION":13.98133623,"ECCENTRICITY":0.0018748,"INCLINATION":88.9919,"RA_OF_ASC_NODE":277.4429,"ARG_OF_PERICENTER":78.5611,"MEAN_ANOMALY":281.7671,"EPHEMERIS_TYPE":0,"NORAD_CAT_ID":69409,"ELEMENT_SET_NO":999,"REV_AT_EPOCH":546,"BSTAR":-1.6315,"MEAN_MOTION_DOT":-0.02149802,"MEAN_MOTION_DDOT":0},{"OBJECT_NAME":"QIANFAN-192","OBJECT_ID":"2026-125K","EPOCH":"2026-07-13T17:36:27.917280","CLASSIFICATION_TYPE":"U","MEAN_MOTION":13.98237822,"ECCENTRICITY":0.002192,"INCLINATION":88.9943,"RA_OF_ASC_NODE":277.4377,"ARG_OF_PERICENTER":79.8187,"MEAN_ANOMALY":280.5461,"EPHEMERIS_TYPE":0,"NORAD_CAT_ID":69410,"ELEMENT_SET_NO":999,"REV_AT_EPOCH":546,"BSTAR":-1.5642,"MEAN_MOTION_DOT":-0.02071873,"MEAN_MOTION_DDOT":0}]}
