QIANFAN-177             
1 69394U 26124N   26194.48685574 -.02074353  00000+0 -15612+1 0  9995
2 69394  88.9992 359.0538 0007792  56.8105 303.3819 13.98521626  5545
QIANFAN-178             
1 69395U 26124P   26194.70000199 -.02078033  00000+0 -15477+1 0  9993
2 69395  88.9983 359.0280 0006593  74.4634 285.7272 13.99126038  5579
QIANFAN-179             
1 69396U 26124Q   26194.75427522 -.02019846  00000+0 -14746+1 0  9997
2 69396  88.9991 359.0198 0003301 121.9956 238.1544 14.00146622  5585
QIANFAN-180             
1 69397U 26124R   26194.61253370 -.02038494  00000+0 -15141+1 0  9991
2 69397  88.9991 359.0347 0006767  73.0621 287.1299 13.99201169  5561
QIANFAN-181             
1 69398U 26124S   26194.55929990 -.01902195  00000+0 -16505+1 0  9995
2 69398  88.9990 359.0826 0001178  98.1158 262.0148 13.90016116  5536
QIANFAN-182             
1 69399U 26124T   26194.72528303 -.02005944  00000+0 -16897+1 0  9999
2 69399  88.9997 359.0526 0005013 114.0892 246.0807 13.91938139  5551
QIANFAN-183             
1 69401U 26125A   26194.61272566 -.01838206  00000+0 -14132+1 0  9993
2 69401  88.9938 277.4755 0020150 100.8325 259.5122 13.97408780  5436
QIANFAN-184             
1 69402U 26125B   26194.74555442 -.02068012  00000+0 -16367+1 0  9998
2 69402  88.9937 277.4579 0024302  79.3341 281.0570 13.95513978  5454
QIANFAN-185             
1 69403U 26125C   26194.82162372  .00000186  00000+0  10621-3 0  9998
2 69403  88.9949 277.4501 0018410  86.9584 273.3704 14.05243743  5465
QIANFAN-186             
1 69404U 26125D   26194.73232759 -.02039667  00000+0 -16241+1 0  9997
2 69404  88.9944 277.4557 0023594  82.5491 277.8365 13.95117115  5452
QIANFAN-187             
1 69405U 26125E   26194.78264204 -.02032461  00000+0 -15760+1 0  9993
2 69405  88.9942 277.4442 0024660  81.0418 279.3548 13.96608215  5460
QIANFAN-188             
1 69406U 26125F   26194.75653951 -.02148502  00000+0 -16000+1 0  9994
2 69406  88.9938 277.4408 0017812  87.4290 272.8927 13.99210515  5461
QIANFAN-189             
1 69407U 26125G   26194.77007301 -.02066346  00000+0 -15774+1 0  9991
2 69407  88.9944 277.4431 0022754  81.6682 278.7074 13.97589101  5452
QIANFAN-190             
1 69408U 26125H   26194.69360185 -.02100119  00000+0 -16202+1 0  9999
2 69408  88.9945 277.4502 0023889  81.2001 279.1880 13.97044902  5459
QIANFAN-191             
1 69409U 26125J   26194.74683340 -.02149802  00000+0 -16315+1 0  9994
2 69409  88.9919 277.4429 0018748  78.5611 281.7671 13.98133623  5461
QIANFAN-192             
1 69410U 26125K   26194.73365645 -.02071873  00000+0 -15642+1 0  9994
2 69410  88.9943 277.4377 0021920  79.8187 280.5461 13.98237822  5460
